{
  "norad_id": 66462,
  "name": "STARLINK-35499",
  "history": [
    {
      "epoch": "2026-03-28T14:40:43.148064Z",
      "apogee_km": 483.9903936551518,
      "perigee_km": 481.9125816175565,
      "latitude_deg": -3.062607648929413e-05,
      "longitude_deg": 142.81451710181386,
      "height_km": 482.7890530724038,
      "semi_major_axis_km": 6861.088487636354,
      "eccentricity": 0.00015142,
      "inclination_deg": 43.003,
      "raan_deg": 189.0239,
      "arg_perigee_deg": 266.6645,
      "mean_anomaly_deg": 93.4033,
      "mean_motion_rev_day": 15.27612598
    },
    {
      "epoch": "2026-03-29T23:38:02.334336Z",
      "apogee_km": 484.06059349988845,
      "perigee_km": 482.0516361558666,
      "latitude_deg": -8.78835401991002e-06,
      "longitude_deg": -0.6254293549014088,
      "height_km": 482.5203809396961,
      "semi_major_axis_km": 6861.193114827877,
      "eccentricity": 0.0001464,
      "inclination_deg": 43.0015,
      "raan_deg": 181.2673,
      "arg_perigee_deg": 288.1344,
      "mean_anomaly_deg": 71.9348,
      "mean_motion_rev_day": 15.27577656
    },
    {
      "epoch": "2026-03-29T23:38:02.335200Z",
      "apogee_km": 484.06059349988845,
      "perigee_km": 482.0516361558666,
      "latitude_deg": -8.791390309465404e-06,
      "longitude_deg": -0.625332967991743,
      "height_km": 482.5203809400164,
      "semi_major_axis_km": 6861.193114827877,
      "eccentricity": 0.0001464,
      "inclination_deg": 43.0015,
      "raan_deg": 181.2674,
      "arg_perigee_deg": 288.1344,
      "mean_anomaly_deg": 71.9348,
      "mean_motion_rev_day": 15.27577656
    },
    {
      "epoch": "2026-03-30T12:11:16.805760Z",
      "apogee_km": 483.99240326612016,
      "perigee_km": 481.894696498799,
      "latitude_deg": 3.917721355582517e-06,
      "longitude_deg": 167.59681191425466,
      "height_km": 482.39810102376117,
      "semi_major_axis_km": 6861.080549882459,
      "eccentricity": 0.00015287,
      "inclination_deg": 43.0046,
      "raan_deg": 178.3154,
      "arg_perigee_deg": 287.9217,
      "mean_anomaly_deg": 72.1468,
      "mean_motion_rev_day": 15.27615249
    },
    {
      "epoch": "2026-03-31T07:01:08.499072Z",
      "apogee_km": 483.8193913729838,
      "perigee_km": 482.08353599167276,
      "latitude_deg": 2.1487366589727717e-06,
      "longitude_deg": -120.0803405462662,
      "height_km": 483.57852862550897,
      "semi_major_axis_km": 6861.088463682328,
      "eccentricity": 0.0001265,
      "inclination_deg": 42.9972,
      "raan_deg": 173.877,
      "arg_perigee_deg": 191.0455,
      "mean_anomaly_deg": 169.0369,
      "mean_motion_rev_day": 15.27612606
    },
    {
      "epoch": "2026-04-01T06:33:29.224224Z",
      "apogee_km": 484.02298577121655,
      "perigee_km": 482.1155704259063,
      "latitude_deg": 2.551611391820559e-05,
      "longitude_deg": -119.66598518713815,
      "height_km": 483.2650832331644,
      "semi_major_axis_km": 6861.206278098562,
      "eccentricity": 0.000139,
      "inclination_deg": 43.0023,
      "raan_deg": 168.3444,
      "arg_perigee_deg": 243.936,
      "mean_anomaly_deg": 116.1349,
      "mean_motion_rev_day": 15.2757326
    },
    {
      "epoch": "2026-04-02T13:56:36.871584Z",
      "apogee_km": 483.99040882274676,
      "perigee_km": 482.0171447353441,
      "latitude_deg": 5.489976076604344e-05,
      "longitude_deg": 120.87462850915077,
      "height_km": 483.3415443599836,
      "semi_major_axis_km": 6861.140776779045,
      "eccentricity": 0.0001438,
      "inclination_deg": 43.0005,
      "raan_deg": 160.9558,
      "arg_perigee_deg": 235.3275,
      "mean_anomaly_deg": 124.7442,
      "mean_motion_rev_day": 15.27595135
    },
    {
      "epoch": "2026-04-03T13:28:57.882720Z",
      "apogee_km": 484.98560270947746,
      "perigee_km": 481.2571948955674,
      "latitude_deg": -2.0418275388974524e-06,
      "longitude_deg": 121.28980228468775,
      "height_km": 482.12867720190616,
      "semi_major_axis_km": 6861.258398802522,
      "eccentricity": 0.0002717,
      "inclination_deg": 43.0042,
      "raan_deg": 155.4253,
      "arg_perigee_deg": 294.4237,
      "mean_anomaly_deg": 65.6331,
      "mean_motion_rev_day": 15.27555854
    },
    {
      "epoch": "2026-04-04T05:10:32.716416Z",
      "apogee_km": 483.94798708602684,
      "perigee_km": 482.1354008986482,
      "latitude_deg": -9.828626125599403e-06,
      "longitude_deg": -118.44603565095251,
      "height_km": 482.64081372421896,
      "semi_major_axis_km": 6861.178693992338,
      "eccentricity": 0.00013209,
      "inclination_deg": 43.0007,
      "raan_deg": 151.7291,
      "arg_perigee_deg": 281.3009,
      "mean_anomaly_deg": 78.7694,
      "mean_motion_rev_day": 15.27582472
    },
    {
      "epoch": "2026-04-05T12:33:40.762080Z",
      "apogee_km": 484.7466678081055,
      "perigee_km": 481.32664718678916,
      "latitude_deg": 7.392251393774859e-06,
      "longitude_deg": 122.09929794361153,
      "height_km": 482.2178758796866,
      "semi_major_axis_km": 6861.173657497447,
      "eccentricity": 0.00024923,
      "inclination_deg": 43.0033,
      "raan_deg": 144.3469,
      "arg_perigee_deg": 290.421,
      "mean_anomaly_deg": 69.6374,
      "mean_motion_rev_day": 15.27584154
    },
    {
      "epoch": "2026-04-05T20:24:27.827712Z",
      "apogee_km": 484.1545547124797,
      "perigee_km": 481.93564842083197,
      "latitude_deg": -2.3116079306707747e-05,
      "longitude_deg": 2.2294175352719323,
      "height_km": 482.8154321229516,
      "semi_major_axis_km": 6861.182101566656,
      "eccentricity": 0.0001617,
      "inclination_deg": 43.0021,
      "raan_deg": 142.4954,
      "arg_perigee_deg": 270.3504,
      "mean_anomaly_deg": 89.7162,
      "mean_motion_rev_day": 15.27581334
    },
    {
      "epoch": "2026-04-06T04:15:14.601312Z",
      "apogee_km": 483.9730864411813,
      "perigee_km": 482.01629168346153,
      "latitude_deg": -3.0370043719463876e-06,
      "longitude_deg": -117.63458891970272,
      "height_km": 482.91627251598857,
      "semi_major_axis_km": 6861.131689062321,
      "eccentricity": 0.0001426,
      "inclination_deg": 43.0015,
      "raan_deg": 140.6485,
      "arg_perigee_deg": 261.4934,
      "mean_anomaly_deg": 98.5756,
      "mean_motion_rev_day": 15.2759817
    },
    {
      "epoch": "2026-04-07T19:29:08.457216Z",
      "apogee_km": 484.28542589666813,
      "perigee_km": 481.72210370693847,
      "latitude_deg": 2.3527711688161366e-05,
      "longitude_deg": 3.0497497277503385,
      "height_km": 482.53269157493315,
      "semi_major_axis_km": 6861.140764801803,
      "eccentricity": 0.0001868,
      "inclination_deg": 43.0056,
      "raan_deg": 131.4184,
      "arg_perigee_deg": 281.1924,
      "mean_anomaly_deg": 78.8718,
      "mean_motion_rev_day": 15.27595139
    },
    {
      "epoch": "2026-04-08T03:19:55.518528Z",
      "apogee_km": 483.5463004388939,
      "perigee_km": 482.4666309031345,
      "latitude_deg": 6.340843891698787e-05,
      "longitude_deg": -116.8180379568901,
      "height_km": 483.0125146687338,
      "semi_major_axis_km": 6861.1434656710135,
      "eccentricity": 7.868e-05,
      "inclination_deg": 42.9996,
      "raan_deg": 129.5689,
      "arg_perigee_deg": 244.7783,
      "mean_anomaly_deg": 115.2988,
      "mean_motion_rev_day": 15.27594237
    },
    {
      "epoch": "2026-04-09T02:52:16.188384Z",
      "apogee_km": 483.73776651898515,
      "perigee_km": 482.27744050157344,
      "latitude_deg": 7.924177187371194e-06,
      "longitude_deg": -116.40843999403427,
      "height_km": 482.8861217731287,
      "semi_major_axis_km": 6861.144603510279,
      "eccentricity": 0.00010642,
      "inclination_deg": 43.001,
      "raan_deg": 124.0314,
      "arg_perigee_deg": 261.9685,
      "mean_anomaly_deg": 98.1046,
      "mean_motion_rev_day": 15.27593857
    },
    {
      "epoch": "2026-04-10T02:24:36.898848Z",
      "apogee_km": 484.33476696636444,
      "perigee_km": 481.6487722756319,
      "latitude_deg": -4.051701084525913e-05,
      "longitude_deg": -115.99990396919802,
      "height_km": 482.4296587736877,
      "semi_major_axis_km": 6861.128769620997,
      "eccentricity": 0.00019574,
      "inclination_deg": 43.0038,
      "raan_deg": 118.493,
      "arg_perigee_deg": 284.6507,
      "mean_anomaly_deg": 75.4127,
      "mean_motion_rev_day": 15.27599145
    },
    {
      "epoch": "2026-04-11T17:38:33.285408Z",
      "apogee_km": 484.18051231507616,
      "perigee_km": 482.05352356951516,
      "latitude_deg": -2.176845392080796e-05,
      "longitude_deg": 4.673154207990738,
      "height_km": 482.8333601359503,
      "semi_major_axis_km": 6861.254017942296,
      "eccentricity": 0.000155,
      "inclination_deg": 43.0042,
      "raan_deg": 109.2622,
      "arg_perigee_deg": 273.2861,
      "mean_anomaly_deg": 86.7813,
      "mean_motion_rev_day": 15.27557317
    },
    {
      "epoch": "2026-04-13T01:01:41.284416Z",
      "apogee_km": 484.00800565741156,
      "perigee_km": 482.06217725227543,
      "latitude_deg": 8.927278255945315e-06,
      "longitude_deg": -114.78670211251588,
      "height_km": 482.7201429098927,
      "semi_major_axis_km": 6861.172091454843,
      "eccentricity": 0.0001418,
      "inclination_deg": 43.0033,
      "raan_deg": 101.8746,
      "arg_perigee_deg": 275.4284,
      "mean_anomaly_deg": 84.6406,
      "mean_motion_rev_day": 15.27584677
    },
    {
      "epoch": "2026-04-14T16:15:35.434080Z",
      "apogee_km": 483.73938587430985,
      "perigee_km": 482.4288926367126,
      "latitude_deg": 1.730501108504977e-05,
      "longitude_deg": 5.8947958008521875,
      "height_km": 482.7948763492133,
      "semi_major_axis_km": 6861.221139255511,
      "eccentricity": 9.55e-05,
      "inclination_deg": 43.0031,
      "raan_deg": 92.6429,
      "arg_perigee_deg": 275.775,
      "mean_anomaly_deg": 84.2993,
      "mean_motion_rev_day": 15.27568297
    }
  ]
}